[{"OBJECT_NAME":"CHUANGXIN 1-03 (CX-1-03)","OBJECT_ID":"2011-068A","EPOCH":"2026-03-09T23:48:05.343264","MEAN_MOTION":14.30514213,"ECCENTRICITY":0.00158467,"INCLINATION":98.7066,"RA_OF_ASC_NODE":86.521,"ARG_OF_PERICENTER":50.1728,"MEAN_ANOMALY":9.9604,"EPHEMERIS_TYPE":0,"CLASSIFICATION_TYPE":"U","NORAD_CAT_ID":37930,"ELEMENT_SET_NO":999,"REV_AT_EPOCH":74647,"BSTAR":-1.9220958e-5,"MEAN_MOTION_DOT":-9.5e-7,"MEAN_MOTION_DDOT":0},{"OBJECT_NAME":"CZ-6A DEB","OBJECT_ID":"2024-140LH","EPOCH":"2026-03-09T14:37:46.557696","MEAN_MOTION":14.54856627,"ECCENTRICITY":0.0113911,"INCLINATION":89.0285,"RA_OF_ASC_NODE":284.57,"ARG_OF_PERICENTER":248.2945,"MEAN_ANOMALY":110.6107,"EPHEMERIS_TYPE":0,"CLASSIFICATION_TYPE":"U","NORAD_CAT_ID":60902,"ELEMENT_SET_NO":999,"REV_AT_EPOCH":8254,"BSTAR":0.00035916,"MEAN_MOTION_DOT":1.698e-5,"MEAN_MOTION_DDOT":0}]
